{
  "type": "FeatureCollection",
  "features": [
    {
      "type": "Feature",
      "properties": {
        "norad_id": 40889,
        "name": "GSAT0205 (GALILEO 9)",
        "group": "galileo",
        "lat": 54.74135195581662,
        "lon": -34.58127453083381,
        "alt_km": 23206.211596994115,
        "timestamp": "2025-12-02T07:10:09.378137+00:00",
        "meta_object_name": "GSAT0205 (GALILEO 9)",
        "meta_object_id": "2015-045A",
        "meta_epoch": "2025-11-30T23:18:34.752384",
        "meta_mean_motion": 1.70472884,
        "meta_eccentricity": 0.00058923,
        "meta_inclination": 55.0077,
        "meta_ra_of_asc_node": 227.0837,
        "meta_arg_of_pericenter": 38.7902,
        "meta_mean_anomaly": 321.3287,
        "meta_ephemeris_type": 0,
        "meta_classification_type": "U",
        "meta_norad_cat_id": 40889,
        "meta_element_set_no": 999,
        "meta_rev_at_epoch": 6363,
        "meta_bstar": 0,
        "meta_mean_motion_dot": 3e-07,
        "meta_mean_motion_ddot": 0,
        "tle_line1": "1 40889U 15045A   25334.97123556  .00000030  00000+0  00000+0 0  9990",
        "tle_line2": "2 40889  55.0077 227.0837 0005892  38.7902 321.3287  1.70472884 63632"
      },
      "geometry": {
        "type": "Point",
        "coordinates": [
          -34.58127453083381,
          54.74135195581662
        ]
      }
    },
    {
      "type": "Feature",
      "properties": {
        "norad_id": 40890,
        "name": "GSAT0206 (GALILEO 10)",
        "group": "galileo",
        "lat": -32.31933021396145,
        "lon": -159.22086139581182,
        "alt_km": 23223.238787540206,
        "timestamp": "2025-12-02T07:10:09.378148+00:00",
        "meta_object_name": "GSAT0206 (GALILEO 10)",
        "meta_object_id": "2015-045B",
        "meta_epoch": "2025-11-28T20:17:33.194976",
        "meta_mean_motion": 1.70472951,
        "meta_eccentricity": 0.00035605,
        "meta_inclination": 55.0075,
        "meta_ra_of_asc_node": 227.1375,
        "meta_arg_of_pericenter": 32.1082,
        "meta_mean_anomaly": 327.9865,
        "meta_ephemeris_type": 0,
        "meta_classification_type": "U",
        "meta_norad_cat_id": 40890,
        "meta_element_set_no": 999,
        "meta_rev_at_epoch": 6362,
        "meta_bstar": 0,
        "meta_mean_motion_dot": 2.6e-07,
        "meta_mean_motion_ddot": 0,
        "tle_line1": "1 40890U 15045B   25332.84552309  .00000026  00000+0  00000+0 0  9993",
        "tle_line2": "2 40890  55.0075 227.1375 0003560  32.1082 327.9865  1.70472951 63625"
      },
      "geometry": {
        "type": "Point",
        "coordinates": [
          -159.22086139581182,
          -32.31933021396145
        ]
      }
    },
    {
      "type": "Feature",
      "properties": {
        "norad_id": 41174,
        "name": "GSAT0209 (GALILEO 12)",
        "group": "galileo",
        "lat": -29.128048732768068,
        "lon": -51.012513432127776,
        "alt_km": 23231.422396258127,
        "timestamp": "2025-12-02T07:10:09.378172+00:00",
        "meta_object_name": "GSAT0209 (GALILEO 12)",
        "meta_object_id": "2015-079A",
        "meta_epoch": "2025-11-29T00:19:48.752544",
        "meta_mean_motion": 1.70474337,
        "meta_eccentricity": 0.00023288,
        "meta_inclination": 55.7045,
        "meta_ra_of_asc_node": 106.7579,
        "meta_arg_of_pericenter": 359.5232,
        "meta_mean_anomaly": 0.4568,
        "meta_ephemeris_type": 0,
        "meta_classification_type": "U",
        "meta_norad_cat_id": 41174,
        "meta_element_set_no": 999,
        "meta_rev_at_epoch": 6136,
        "meta_bstar": 0,
        "meta_mean_motion_dot": 5.4e-07,
        "meta_mean_motion_ddot": 0,
        "tle_line1": "1 41174U 15079A   25333.01375871  .00000054  00000+0  00000+0 0  9994",
        "tle_line2": "2 41174  55.7045 106.7579 0002328 359.5232   0.4568  1.70474337 61369"
      },
      "geometry": {
        "type": "Point",
        "coordinates": [
          -51.012513432127776,
          -29.128048732768068
        ]
      }
    },
    {
      "type": "Feature",
      "properties": {
        "norad_id": 41175,
        "name": "GSAT0208 (GALILEO 11)",
        "group": "galileo",
        "lat": 54.679923430131396,
        "lon": -179.0421294119671,
        "alt_km": 23213.874804772364,
        "timestamp": "2025-12-02T07:10:09.378186+00:00",
        "meta_object_name": "GSAT0208 (GALILEO 11)",
        "meta_object_id": "2015-079B",
        "meta_epoch": "2025-11-30T09:46:10.644960",
        "meta_mean_motion": 1.70474193,
        "meta_eccentricity": 0.00018872,
        "meta_inclination": 55.7038,
        "meta_ra_of_asc_node": 106.7167,
        "meta_arg_of_pericenter": 11.7228,
        "meta_mean_anomaly": 348.2564,
        "meta_ephemeris_type": 0,
        "meta_classification_type": "U",
        "meta_norad_cat_id": 41175,
        "meta_element_set_no": 999,
        "meta_rev_at_epoch": 6180,
        "meta_bstar": 0,
        "meta_mean_motion_dot": 4.8e-07,
        "meta_mean_motion_ddot": 0,
        "tle_line1": "1 41175U 15079B   25334.40706765  .00000048  00000+0  00000+0 0  9992",
        "tle_line2": "2 41175  55.7038 106.7167 0001887  11.7228 348.2564  1.70474193 61804"
      },
      "geometry": {
        "type": "Point",
        "coordinates": [
          -179.0421294119671,
          54.679923430131396
        ]
      }
    },
    {
      "type": "Feature",
      "properties": {
        "norad_id": 41549,
        "name": "GSAT0211 (GALILEO 14)",
        "group": "galileo",
        "lat": 3.9918409840409987,
        "lon": -130.10600894442322,
        "alt_km": 23210.89333059349,
        "timestamp": "2025-12-02T07:10:09.378198+00:00",
        "meta_object_name": "GSAT0211 (GALILEO 14)",
        "meta_object_id": "2016-030A",
        "meta_epoch": "2025-11-28T18:30:37.119744",
        "meta_mean_motion": 1.70472998,
        "meta_eccentricity": 0.00037617,
        "meta_inclination": 55.1573,
        "meta_ra_of_asc_node": 227.2083,
        "meta_arg_of_pericenter": 3.3414,
        "meta_mean_anomaly": 356.7341,
        "meta_ephemeris_type": 0,
        "meta_classification_type": "U",
        "meta_norad_cat_id": 41549,
        "meta_element_set_no": 999,
        "meta_rev_at_epoch": 5925,
        "meta_bstar": 0,
        "meta_mean_motion_dot": 2.6e-07,
        "meta_mean_motion_ddot": 0,
        "tle_line1": "1 41549U 16030A   25332.77126296  .00000026  00000+0  00000+0 0  9994",
        "tle_line2": "2 41549  55.1573 227.2083 0003761   3.3414 356.7341  1.70472998 59254"
      },
      "geometry": {
        "type": "Point",
        "coordinates": [
          -130.10600894442322,
          3.9918409840409987
        ]
      }
    },
    {
      "type": "Feature",
      "properties": {
        "norad_id": 41550,
        "name": "GSAT0210 (GALILEO 13)",
        "group": "galileo",
        "lat": -21.788717939896326,
        "lon": 63.25390596803432,
        "alt_km": 23222.232966719566,
        "timestamp": "2025-12-02T07:10:09.378216+00:00",
        "meta_object_name": "GSAT0210 (GALILEO 13)",
        "meta_object_id": "2016-030B",
        "meta_epoch": "2025-12-01T09:00:06.320160",
        "meta_mean_motion": 1.70473417,
        "meta_eccentricity": 0.0001216,
        "meta_inclination": 55.1557,
        "meta_ra_of_asc_node": 227.1346,
        "meta_arg_of_pericenter": 241.6156,
        "meta_mean_anomaly": 118.4503,
        "meta_ephemeris_type": 0,
        "meta_classification_type": "U",
        "meta_norad_cat_id": 41550,
        "meta_element_set_no": 999,
        "meta_rev_at_epoch": 5929,
        "meta_bstar": 0,
        "meta_mean_motion_dot": 3.2e-07,
        "meta_mean_motion_ddot": 0,
        "tle_line1": "1 41550U 16030B   25335.37507315  .00000032  00000+0  00000+0 0  9997",
        "tle_line2": "2 41550  55.1557 227.1346 0001216 241.6156 118.4503  1.70473417 59296"
      },
      "geometry": {
        "type": "Point",
        "coordinates": [
          63.25390596803432,
          -21.788717939896326
        ]
      }
    },
    {
      "type": "Feature",
      "properties": {
        "norad_id": 41859,
        "name": "GSAT0207 (GALILEO 15)",
        "group": "galileo",
        "lat": 28.979566723724478,
        "lon": 129.00680431014712,
        "alt_km": 23216.571598375907,
        "timestamp": "2025-12-02T07:10:09.378240+00:00",
        "meta_object_name": "GSAT0207 (GALILEO 15)",
        "meta_object_id": "2016-069A",
        "meta_epoch": "2025-11-30T11:31:32.297952",
        "meta_mean_motion": 1.70474248,
        "meta_eccentricity": 0.00020596,
        "meta_inclination": 55.375,
        "meta_ra_of_asc_node": 106.5899,
        "meta_arg_of_pericenter": 325.7449,
        "meta_mean_anomaly": 34.2162,
        "meta_ephemeris_type": 0,
        "meta_classification_type": "U",
        "meta_norad_cat_id": 41859,
        "meta_element_set_no": 999,
        "meta_rev_at_epoch": 5601,
        "meta_bstar": 0,
        "meta_mean_motion_dot": 4.7e-07,
        "meta_mean_motion_ddot": 0,
        "tle_line1": "1 41859U 16069A   25334.48023493  .00000047  00000+0  00000+0 0  9998",
        "tle_line2": "2 41859  55.3750 106.5899 0002059 325.7449  34.2162  1.70474248 56019"
      },
      "geometry": {
        "type": "Point",
        "coordinates": [
          129.00680431014712,
          28.979566723724478
        ]
      }
    }
  ]
}